{"type": "FeatureCollection", "features": [ {"type": "Feature", "properties": {"norad_id": 43565, "name": "GSAT0222 (GALILEO 26)", "group": "gnss", "lat": 53.65449871004086, "lon": 105.41957800493827, "alt_km": 23232.71996791042, "timestamp": "2025-12-23T11:34:48.410520+00:00", "meta": {"OBJECT_NAME": "GSAT0222 (GALILEO 26)", "OBJECT_ID": "2018-060B", "EPOCH": "2025-12-22T03:15:04.306464", "MEAN_MOTION": 1.70475514, "ECCENTRICITY": 0.000605, "INCLINATION": 57.229, "RA_OF_ASC_NODE": 346.567, "ARG_OF_PERICENTER": 266.9186, "MEAN_ANOMALY": 93.0201, "EPHEMERIS_TYPE": 0, "CLASSIFICATION_TYPE": "U", "NORAD_CAT_ID": 43565, "ELEMENT_SET_NO": 999, "REV_AT_EPOCH": 4619, "BSTAR": 0, "MEAN_MOTION_DOT": -6.5e-07, "MEAN_MOTION_DDOT": 0}, "tle": {"line1": "1 43565U 18060B   25356.13546651 -.00000065  00000+0  00000+0 0  9990", "line2": "2 43565  57.2290 346.5670 0006050 266.9186  93.0201  1.70475514 46199"}}, "geometry": {"type": "Point", "coordinates": [105.41957800493827, 53.65449871004086]}}, {"type": "Feature", "properties": {"norad_id": 43566, "name": "GSAT0219 (GALILEO 23)", "group": "gnss", "lat": -24.071432236189683, "lon": -30.20399831155428, "alt_km": 23211.81945826345, "timestamp": "2025-12-23T11:34:48.410530+00:00", "meta": {"OBJECT_NAME": "GSAT0219 (GALILEO 23)", "OBJECT_ID": "2018-060C", "EPOCH": "2025-12-22T08:33:30.157056", "MEAN_MOTION": 1.70475755, "ECCENTRICITY": 0.00058833, "INCLINATION": 57.2283, "RA_OF_ASC_NODE": 346.5626, "ARG_OF_PERICENTER": 291.1394, "MEAN_ANOMALY": 68.8055, "EPHEMERIS_TYPE": 0, "CLASSIFICATION_TYPE": "U", "NORAD_CAT_ID": 43566, "ELEMENT_SET_NO": 999, "REV_AT_EPOCH": 4617, "BSTAR": 0, "MEAN_MOTION_DOT": -6.5e-07, "MEAN_MOTION_DDOT": 0}, "tle": {"line1": "1 43566U 18060C   25356.35659904 -.00000065  00000+0  00000+0 0  9991", "line2": "2 43566  57.2283 346.5626 0005883 291.1394  68.8055  1.70475755 46179"}}, "geometry": {"type": "Point", "coordinates": [-30.20399831155428, -24.071432236189683]}}, {"type": "Feature", "properties": {"norad_id": 43567, "name": "GSAT0220 (GALILEO 24)", "group": "gnss", "lat": -12.833992039362746, "lon": 174.9595705586679, "alt_km": 23224.85562498389, "timestamp": "2025-12-23T11:34:48.410540+00:00", "meta": {"OBJECT_NAME": "GSAT0220 (GALILEO 24)", "OBJECT_ID": "2018-060D", "EPOCH": "2025-12-19T15:28:13.770912", "MEAN_MOTION": 1.70475932, "ECCENTRICITY": 0.000607, "INCLINATION": 57.2288, "RA_OF_ASC_NODE": 346.6359, "ARG_OF_PERICENTER": 288.3471, "MEAN_ANOMALY": 71.5983, "EPHEMERIS_TYPE": 0, "CLASSIFICATION_TYPE": "U", "NORAD_CAT_ID": 43567, "ELEMENT_SET_NO": 999, "REV_AT_EPOCH": 4611, "BSTAR": 0, "MEAN_MOTION_DOT": -7.2e-07, "MEAN_MOTION_DDOT": 0}, "tle": {"line1": "1 43567U 18060D   25353.64460383 -.00000072  00000+0  00000+0 0  9990", "line2": "2 43567  57.2288 346.6359 0006070 288.3471  71.5983  1.70475932 46114"}}, "geometry": {"type": "Point", "coordinates": [174.9595705586679, -12.833992039362746]}}, {"type": "Feature", "properties": {"norad_id": 43581, "name": "BEIDOU-3 M5 (C23)", "group": "gnss", "lat": -21.46891467078925, "lon": 171.71416641624953, "alt_km": 21526.375566798775, "timestamp": "2025-12-23T11:34:48.410550+00:00", "meta": {"OBJECT_NAME": "BEIDOU-3 M5 (C23)", "OBJECT_ID": "2018-062A", "EPOCH": "2025-12-20T20:06:28.310688", "MEAN_MOTION": 1.86228979, "ECCENTRICITY": 0.00019404, "INCLINATION": 54.0899, "RA_OF_ASC_NODE": 188.3678, "ARG_OF_PERICENTER": 1.4371, "MEAN_ANOMALY": 358.6166, "EPHEMERIS_TYPE": 0, "CLASSIFICATION_TYPE": "U", "NORAD_CAT_ID": 43581, "ELEMENT_SET_NO": 999, "REV_AT_EPOCH": 5031, "BSTAR": 0, "MEAN_MOTION_DOT": 9.5e-07, "MEAN_MOTION_DDOT": 0}, "tle": {"line1": "1 43581U 18062A   25354.83782767  .00000095  00000+0  00000+0 0  9997", "line2": "2 43581  54.0899 188.3678 0001940   1.4371 358.6166  1.86228979 50315"}}, "geometry": {"type": "Point", "coordinates": [171.71416641624953, -21.46891467078925]}}, {"type": "Feature", "properties": {"norad_id": 43582, "name": "BEIDOU-3 M6 (C24)", "group": "gnss", "lat": 47.24043451709845, "lon": -120.09328220763548, "alt_km": 21501.53968421551, "timestamp": "2025-12-23T11:34:48.410561+00:00", "meta": {"OBJECT_NAME": "BEIDOU-3 M6 (C24)", "OBJECT_ID": "2018-062B", "EPOCH": "2025-12-21T18:35:38.749056", "MEAN_MOTION": 1.86229862, "ECCENTRICITY": 0.00078412, "INCLINATION": 54.0893, "RA_OF_ASC_NODE": 188.325, "ARG_OF_PERICENTER": 48.2344, "MEAN_ANOMALY": 311.88, "EPHEMERIS_TYPE": 0, "CLASSIFICATION_TYPE": "U", "NORAD_CAT_ID": 43582, "ELEMENT_SET_NO": 999, "REV_AT_EPOCH": 5033, "BSTAR": 0, "MEAN_MOTION_DOT": 9.4e-07, "MEAN_MOTION_DDOT": 0}, "tle": {"line1": "1 43582U 18062B   25355.77475404  .00000094  00000+0  00000+0 0  9998", "line2": "2 43582  54.0893 188.3250 0007841  48.2344 311.8800  1.86229862 50331"}}, "geometry": {"type": "Point", "coordinates": [-120.09328220763548, 47.24043451709845]}}, {"type": "Feature", "properties": {"norad_id": 43602, "name": "BEIDOU-3 M12 (C26)", "group": "gnss", "lat": 50.90168706438945, "lon": -55.76380616427755, "alt_km": 21511.458136254827, "timestamp": "2025-12-23T11:34:48.410572+00:00", "meta": {"OBJECT_NAME": "BEIDOU-3 M12 (C26)", "OBJECT_ID": "2018-067A", "EPOCH": "2025-12-22T18:52:41.106432", "MEAN_MOTION": 1.86227882, "ECCENTRICITY": 0.0009247, "INCLINATION": 54.1835, "RA_OF_ASC_NODE": 187.0221, "ARG_OF_PERICENTER": 41.599, "MEAN_ANOMALY": 318.5103, "EPHEMERIS_TYPE": 0, "CLASSIFICATION_TYPE": "U", "NORAD_CAT_ID": 43602, "ELEMENT_SET_NO": 999, "REV_AT_EPOCH": 4983, "BSTAR": 0, "MEAN_MOTION_DOT": 9.5e-07, "MEAN_MOTION_DDOT": 0}, "tle": {"line1": "1 43602U 18067A   25356.78658688  .00000095  00000+0  00000+0 0  9996", "line2": "2 43602  54.1835 187.0221 0009247  41.5990 318.5103  1.86227882 49833"}}, "geometry": {"type": "Point", "coordinates": [-55.76380616427755, 50.90168706438945]}}, {"type": "Feature", "properties": {"norad_id": 43603, "name": "BEIDOU-3 M11 (C25)", "group": "gnss", "lat": 13.22431511411622, "lon": -163.257600869617, "alt_km": 21512.208462934155, "timestamp": "2025-12-23T11:34:48.410581+00:00", "meta": {"OBJECT_NAME": "BEIDOU-3 M11 (C25)", "OBJECT_ID": "2018-067B", "EPOCH": "2025-12-21T20:19:59.001024", "MEAN_MOTION": 1.86227373, "ECCENTRICITY": 0.00056493, "INCLINATION": 54.1806, "RA_OF_ASC_NODE": 187.018, "ARG_OF_PERICENTER": 37.4949, "MEAN_ANOMALY": 322.5886, "EPHEMERIS_TYPE": 0, "CLASSIFICATION_TYPE": "U", "NORAD_CAT_ID": 43603, "ELEMENT_SET_NO": 999, "REV_AT_EPOCH": 4984, "BSTAR": 0, "MEAN_MOTION_DOT": 9.4e-07, "MEAN_MOTION_DDOT": 0}, "tle": {"line1": "1 43603U 18067B   25355.84721066  .00000094  00000+0  00000+0 0  9993", "line2": "2 43603  54.1806 187.0180 0005649  37.4949 322.5886  1.86227373 49845"}}, "geometry": {"type": "Point", "coordinates": [-163.257600869617, 13.22431511411622]}}, {"type": "Feature", "properties": {"norad_id": 43622, "name": "BEIDOU-3 M13 (C32)", "group": "gnss", "lat": 36.5397751510544, "lon": 97.87295249970484, "alt_km": 21529.16956668984, "timestamp": "2025-12-23T11:34:48.410593+00:00", "meta": {"OBJECT_NAME": "BEIDOU-3 M13 (C32)", "OBJECT_ID": "2018-072A", "EPOCH": "2025-12-22T08:10:31.412640", "MEAN_MOTION": 1.86231166, "ECCENTRICITY": 0.00064111, "INCLINATION": 56.4667, "RA_OF_ASC_NODE": 68.5024, "ARG_OF_PERICENTER": 297.4685, "MEAN_ANOMALY": 62.5173, "EPHEMERIS_TYPE": 0, "CLASSIFICATION_TYPE": "U", "NORAD_CAT_ID": 43622, "ELEMENT_SET_NO": 999, "REV_AT_EPOCH": 4936, "BSTAR": 0, "MEAN_MOTION_DOT": -2.9e-07, "MEAN_MOTION_DDOT": 0}, "tle": {"line1": "1 43622U 18072A   25356.34064135 -.00000029  00000+0  00000+0 0  9992", "line2": "2 43622  56.4667  68.5024 0006411 297.4685  62.5173  1.86231166 49361"}}, "geometry": {"type": "Point", "coordinates": [97.87295249970484, 36.5397751510544]}}, {"type": "Feature", "properties": {"norad_id": 43623, "name": "BEIDOU-3 M14 (C33)", "group": "gnss", "lat": 35.55233703428768, "lon": -139.767299822374, "alt_km": 21533.499107752566, "timestamp": "2025-12-23T11:34:48.410604+00:00", "meta": {"OBJECT_NAME": "BEIDOU-3 M14 (C33)", "OBJECT_ID": "2018-072B", "EPOCH": "2025-12-22T04:56:47.689728", "MEAN_MOTION": 1.86231163, "ECCENTRICITY": 0.00035757, "INCLINATION": 56.4687, "RA_OF_ASC_NODE": 68.5008, "ARG_OF_PERICENTER": 327.1514, "MEAN_ANOMALY": 32.8768, "EPHEMERIS_TYPE": 0, "CLASSIFICATION_TYPE": "U", "NORAD_CAT_ID": 43623, "ELEMENT_SET_NO": 999, "REV_AT_EPOCH": 4935, "BSTAR": 0, "MEAN_MOTION_DOT": -3e-07, "MEAN_MOTION_DDOT": 0}, "tle": {"line1": "1 43623U 18072B   25356.20610752 -.00000030  00000+0  00000+0 0  9992", "line2": "2 43623  56.4687  68.5008 0003575 327.1514  32.8768  1.86231163 49352"}}, "geometry": {"type": "Point", "coordinates": [-139.767299822374, 35.55233703428768]}}, {"type": "Feature", "properties": {"norad_id": 43647, "name": "BEIDOU-3 M16 (C35)", "group": "gnss", "lat": 24.013481294522087, "lon": -35.17766639408893, "alt_km": 21504.627128771244, "timestamp": "2025-12-23T11:34:48.410614+00:00", "meta": {"OBJECT_NAME": "BEIDOU-3 M16 (C35)", "OBJECT_ID": "2018-078A", "EPOCH": "2025-12-22T21:37:04.499328", "MEAN_MOTION": 1.86232328, "ECCENTRICITY": 0.000742, "INCLINATION": 54.2525, "RA_OF_ASC_NODE": 306.1662, "ARG_OF_PERICENTER": 20.3198, "MEAN_ANOMALY": 339.7131, "EPHEMERIS_TYPE": 0, "CLASSIFICATION_TYPE": "U", "NORAD_CAT_ID": 43647, "ELEMENT_SET_NO": 999, "REV_AT_EPOCH": 4887, "BSTAR": 0, "MEAN_MOTION_DOT": -5.5e-07, "MEAN_MOTION_DDOT": 0}, "tle": {"line1": "1 43647U 18078A   25356.90074652 -.00000055  00000+0  00000+0 0  9991", "line2": "2 43647  54.2525 306.1662 0007420  20.3198 339.7131  1.86232328 48878"}}, "geometry": {"type": "Point", "coordinates": [-35.17766639408893, 24.013481294522087]}}]}